SL-3 R/B                
1 13403U 82079B   26055.54125602  .00006468  00000+0  25933-3 0  9998
2 13403  81.1462 208.5987 0024571 209.3495 150.6360 15.24574200375696
SL-14 R/B               
1 13553U 82092B   26055.38557703  .00000505  00000+0  53992-4 0  9995
2 13553  82.5712 153.8404 0019961 349.7380  79.1784 14.86651012326954
SL-3 R/B                
1 13819U 83010B   26055.36385470  .00016539  00000+0  33807-3 0  9995
2 13819  81.1047  18.5770 0018669  92.9180 267.4202 15.45819498355888
SL-3 R/B                
1 14208U 83075B   26055.54662427  .00011458  00000+0  30626-3 0  9990
2 14208  97.6143  59.6311 0019675 277.7149  82.1861 15.38054682328132
COSMOS 1536             
1 14699U 84013A   26055.58579981  .00006861  00000+0  28446-3 0  9992
2 14699  82.5450 120.8743 0013313 334.1012  25.9557 15.23631805270629
SL-14 R/B               
1 14820U 84027B   26055.56229002  .00000437  00000+0  47132-4 0  9994
2 14820  82.5381 257.3283 0018498  21.6918 338.5078 14.85961134245682
SL-8 R/B                
1 15483U 85006B   26055.63870598  .00000132  00000+0  52327-4 0  9992
2 15483  74.0443 285.1652 0018979 205.6832 174.8653 14.37775362152157
SL-12 R/B(2)            
1 15772U 85042D   26055.54775603  .00000017  00000+0  29198-4 0  9996
2 15772  71.1073 115.4957 0033934 149.5517 313.7977 14.21978595112528
SL-14 R/B               
1 15945U 85069B   26055.41640784  .00000563  00000+0  60956-4 0  9997
2 15945  82.5258  37.4146 0017440 233.6285 126.3324 14.86415437170862
SL-16 R/B               
1 16182U 85097B   26055.56030657  .00000275  00000+0  16185-3 0  9994
2 16182  71.0036 168.1929 0009756 274.6907  96.0175 14.16596795 85379
SL-14 R/B               
1 16496U 86006B   26055.59884267  .00000568  00000+0  57866-4 0  9997
2 16496  82.5240 272.0608 0075540 316.9993  42.5334 14.86795730147266
COSMOS 1743             
1 16719U 86034A   26055.53987708  .00033522  00000+0  45411-3 0  9992
2 16719  82.5312  87.6222 0003326   3.8514 356.2766 15.57517366178208
